     2              NAVIGATION DATA                         RINEX VERSION / TYPE
CCRINEXN V1.6.0 UX  CDDIS               26-JUN-24 16:09     PGM / RUN BY / DATE 
IGS BROADCAST EPHEMERIS FILE                                COMMENT             
    0.1863D-07  0.2235D-07 -0.1192D-06 -0.5960D-07          ION ALPHA           
    0.1290D+06  0.1638D+06 -0.1966D+06 -0.2621D+06          ION BETA            
   -0.931322574615D-09-0.621724893790D-14   405504     2320 DELTA-UTC: A0,A1,T,W
    18                                                      LEAP SECONDS        
                                                            END OF HEADER       
 4 24  6 26  6  0  0.0 0.391130335629D-03 0.795807864051D-11 0.000000000000D+00
    0.199000000000D+03-0.111531250000D+03 0.426589197724D-08-0.100443191533D+01
   -0.584311783314D-05 0.287577870768D-02 0.912137329578D-05 0.515373985863D+04
    0.280800000000D+06 0.838190317154D-07-0.263395237928D+01-0.558793544769D-07
    0.965377526592D+00 0.202656250000D+03-0.295955078364D+01-0.795211695188D-08
    0.682171272314D-10 0.100000000000D+01 0.232000000000D+04 0.000000000000D+00
    0.200000000000D+01 0.000000000000D+00-0.465661287308D-08 0.199000000000D+03
    0.273618000000D+06 0.400000000000D+01 0.000000000000D+00 0.000000000000D+00
 5 24  6 26  6  0  0.0-0.177632551640D-03-0.136424205266D-11 0.000000000000D+00
    0.750000000000D+02-0.249687500000D+02 0.438518266046D-08-0.314499186371D+00
   -0.117346644402D-05 0.593067856971D-02 0.223144888878D-05 0.515363191414D+04
    0.280800000000D+06-0.223517417908D-07 0.251957522937D+01 0.800937414169D-07
    0.971907600836D+00 0.343000000000D+03 0.127439455912D+01-0.837677749784D-08
    0.110718897601D-09 0.100000000000D+01 0.232000000000D+04 0.000000000000D+00
    0.200000000000D+01 0.000000000000D+00-0.107102096081D-07 0.750000000000D+02
    0.273618000000D+06 0.400000000000D+01 0.000000000000D+00 0.000000000000D+00
 6 24  6 26  6  0  0.0 0.197264365852D-03-0.218278728425D-10 0.000000000000D+00
    0.220000000000D+02 0.908125000000D+02 0.367979613542D-08-0.263751533089D+01
    0.473670661449D-05 0.293262512423D-02 0.689364969730D-05 0.515364813042D+04
    0.280800000000D+06 0.260770320892D-07 0.153470260776D+01 0.391155481338D-07
    0.989503368833D+00 0.264000000000D+03-0.697490245680D+00-0.778818155188D-08
    0.151077721565D-09 0.100000000000D+01 0.232000000000D+04 0.000000000000D+00
    0.200000000000D+01 0.000000000000D+00 0.372529029846D-08 0.220000000000D+02
    0.273618000000D+06 0.400000000000D+01 0.000000000000D+00 0.000000000000D+00
 7 24  6 26  6  0  0.0-0.834865495563D-04 0.909494701773D-11 0.000000000000D+00
    0.400000000000D+01-0.209375000000D+01 0.481734351884D-08 0.276414254134D+01
   -0.212341547012D-06 0.186399774393D-01 0.989250838757D-05 0.515363014984D+04
    0.280800000000D+06 0.614672899246D-07-0.162130723078D+01-0.294297933578D-06
    0.949895900509D+00 0.182187500000D+03-0.211368123956D+01-0.772353600199D-08
    0.425732019162D-09 0.100000000000D+01 0.232000000000D+04 0.000000000000D+00
    0.200000000000D+01 0.000000000000D+00-0.111758708954D-07 0.400000000000D+01
    0.273978000000D+06 0.400000000000D+01 0.000000000000D+00 0.000000000000D+00
 8 24  6 26  6  0  0.0 0.247281510383D-03 0.173940861714D-10 0.000000000000D+00
    0.930000000000D+02 0.136562500000D+02 0.459304846176D-08-0.668582607001D+00
    0.650063157082D-06 0.947922607884D-02 0.992417335510D-05 0.515364870453D+04
    0.280800000000D+06 0.247731804848D-06 0.437977503681D+00 0.745058059692D-08
    0.953029523699D+00 0.185468750000D+03 0.365055026807D+00-0.810569477758D-08
   -0.655027284516D-09 0.100000000000D+01 0.232000000000D+04 0.000000000000D+00
    0.200000000000D+01 0.000000000000D+00 0.465661287308D-08 0.930000000000D+02
    0.280137000000D+06 0.400000000000D+01 0.000000000000D+00 0.000000000000D+00
 9 24  6 26  6  0  0.0 0.249271746725D-03 0.147792889038D-10 0.000000000000D+00
    0.780000000000D+02-0.104687500000D+03 0.448804408791D-08-0.195731052733D+00
   -0.570714473724D-05 0.279548438266D-02 0.845082104206D-05 0.515364736748D+04
    0.280800000000D+06-0.279396772385D-07-0.269368652094D+01-0.540167093277D-07
    0.959025334409D+00 0.215250000000D+03 0.197693649792D+01-0.808819404861D-08
    0.514307137242D-10 0.100000000000D+01 0.232000000000D+04 0.000000000000D+00
    0.200000000000D+01 0.000000000000D+00 0.931322574616D-09 0.780000000000D+02
    0.273618000000D+06 0.400000000000D+01 0.000000000000D+00 0.000000000000D+00
10 24  6 26  6  0  0.0-0.513312406838D-04-0.875388650456D-11 0.000000000000D+00
    0.490000000000D+02-0.307812500000D+02 0.424017662038D-08 0.130691923788D+01
   -0.163912773132D-05 0.938489194959D-02 0.214204192162D-05 0.515368565559D+04
    0.280800000000D+06-0.158324837685D-06 0.256874116743D+01 0.391155481338D-07
    0.984646551030D+00 0.350937500000D+03-0.237532837026D+01-0.835070498324D-08
   -0.339299847486D-10 0.100000000000D+01 0.232000000000D+04 0.000000000000D+00
    0.200000000000D+01 0.000000000000D+00 0.232830643654D-08 0.490000000000D+02
    0.276432000000D+06 0.400000000000D+01 0.000000000000D+00 0.000000000000D+00
11 24  6 26  6  0  0.0-0.693186651915D-03-0.761701812735D-11 0.000000000000D+00
    0.124000000000D+03 0.903125000000D+02 0.418624580251D-08-0.135401481332D+01
    0.470504164696D-05 0.138869707007D-02 0.660866498947D-05 0.515373195457D+04
    0.280800000000D+06 0.633299350738D-07 0.156711960990D+01-0.987201929092D-07
    0.966051683130D+00 0.259093750000D+03-0.260765605815D+01-0.803212028434D-08
    0.124648049234D-09 0.100000000000D+01 0.232000000000D+04 0.000000000000D+00
    0.200000000000D+01 0.000000000000D+00-0.884756445885D-08 0.636000000000D+03
    0.276318000000D+06 0.400000000000D+01 0.000000000000D+00 0.000000000000D+00
12 24  6 26  6  0  0.0-0.517244916409D-03-0.318323145621D-11 0.000000000000D+00
    0.610000000000D+02-0.625000000000D+00 0.487163149443D-08 0.203021264331D+01
   -0.322237610817D-06 0.871550897136D-02 0.560469925404D-05 0.515362504387D+04
    0.280800000000D+06 0.335276126862D-07-0.505354239518D+00-0.149011611938D-06
    0.962255807165D+00 0.267281250000D+03 0.145473813918D+01-0.807176479283D-08
   -0.331799535068D-09 0.100000000000D+01 0.232000000000D+04 0.000000000000D+00
    0.200000000000D+01 0.000000000000D+00-0.125728547573D-07 0.610000000000D+02
    0.273618000000D+06 0.400000000000D+01 0.000000000000D+00 0.000000000000D+00
14 24  6 26  6  0  0.0 0.434393063188D-03 0.909494701773D-11 0.000000000000D+00
    0.240000000000D+02 0.843750000000D+01 0.537022369137D-08 0.198466343080D+01
    0.517815351486D-06 0.463630340528D-02 0.576488673687D-05 0.515369372749D+04
    0.280800000000D+06-0.856816768646D-07-0.550246063454D+00 0.163912773132D-06
    0.945548507354D+00 0.262843750000D+03-0.288664688290D+01-0.846499545818D-08
   -0.191436545529D-09 0.100000000000D+01 0.232000000000D+04 0.000000000000D+00
    0.200000000000D+01 0.000000000000D+00-0.791624188423D-08 0.792000000000D+03
    0.278292000000D+06 0.400000000000D+01 0.000000000000D+00 0.000000000000D+00
16 24  6 26  6  0  0.0-0.253813806921D-03 0.106865627458D-10 0.000000000000D+00
    0.520000000000D+02 0.300000000000D+01 0.506378235543D-08 0.250541655814D+00
    0.413507223129D-06 0.138280118117D-01 0.600144267082D-05 0.515357081604D+04
    0.280800000000D+06-0.558793544769D-07-0.487522714958D+00 0.169500708580D-06
    0.961734480216D+00 0.262187500000D+03 0.838155707247D+00-0.846035240764D-08
   -0.341799951626D-09 0.100000000000D+01 0.232000000000D+04 0.000000000000D+00
    0.200000000000D+01 0.000000000000D+00-0.102445483208D-07 0.520000000000D+02
    0.273618000000D+06 0.400000000000D+01 0.000000000000D+00 0.000000000000D+00
18 24  6 26  6  0  0.0-0.629588961601D-03-0.454747350886D-11 0.000000000000D+00
    0.790000000000D+02 0.119062500000D+03 0.394695012060D-08-0.261957024293D+01
    0.611692667007D-05 0.426572910510D-02 0.719539821148D-05 0.515361130333D+04
    0.280800000000D+06 0.186264514923D-07 0.153835337834D+01 0.242143869400D-07
    0.974345447022D+00 0.250125000000D+03-0.305396417371D+01-0.791211528565D-08
    0.269654089318D-09 0.100000000000D+01 0.232000000000D+04 0.000000000000D+00
    0.200000000000D+01 0.000000000000D+00-0.838190317154D-08 0.790000000000D+02
    0.273618000000D+06 0.400000000000D+01 0.000000000000D+00 0.000000000000D+00
19 24  6 26  6  0  0.0 0.501760281622D-03 0.545696821064D-11 0.000000000000D+00
    0.156000000000D+03 0.245937500000D+02 0.423196199249D-08 0.128691243314D+01
    0.128149986267D-05 0.994369469117D-02 0.965408980846D-05 0.515371578789D+04
    0.280800000000D+06 0.199303030968D-06 0.577416140203D+00 0.100582838059D-06
    0.967954639653D+00 0.193406250000D+03 0.257506081261D+01-0.783389774186D-08
   -0.546451333320D-09 0.100000000000D+01 0.232000000000D+04 0.000000000000D+00
    0.200000000000D+01 0.000000000000D+00-0.153668200000D-07 0.156000000000D+03
    0.273630000000D+06 0.400000000000D+01 0.000000000000D+00 0.000000000000D+00
20 24  6 26  6  0  0.0 0.373426359147D-03-0.454747350886D-12 0.000000000000D+00
    0.240000000000D+02-0.781250000000D+00 0.472841124302D-08-0.224882808405D+01
    0.204890966415D-07 0.368117436301D-02 0.190176069737D-05 0.515355119324D+04
    0.280800000000D+06 0.298023223877D-07 0.239022602431D+01-0.465661287308D-07
    0.954253529701D+00 0.338843750000D+03-0.258723588396D+01-0.844070873226D-08
    0.163935399996D-09 0.100000000000D+01 0.232000000000D+04 0.000000000000D+00
    0.200000000000D+01 0.000000000000D+00-0.838190317154D-08 0.240000000000D+02
    0.273618000000D+06 0.400000000000D+01 0.000000000000D+00 0.000000000000D+00
